[{"OBJECT_NAME":"STARLINK-3706","OBJECT_ID":"2022-029T","EPOCH":"2026-03-09T10:22:29.038656","MEAN_MOTION":15.0884363,"ECCENTRICITY":0.00013248,"INCLINATION":53.2165,"RA_OF_ASC_NODE":80.2756,"ARG_OF_PERICENTER":87.5978,"MEAN_ANOMALY":272.5166,"EPHEMERIS_TYPE":0,"CLASSIFICATION_TYPE":"U","NORAD_CAT_ID":52105,"ELEMENT_SET_NO":999,"REV_AT_EPOCH":22074,"BSTAR":2.9305159e-5,"MEAN_MOTION_DOT":1.79e-6,"MEAN_MOTION_DDOT":0},{"OBJECT_NAME":"RAPIDEYE 2","OBJECT_ID":"2008-040A","EPOCH":"2026-03-09T16:28:01.823808","MEAN_MOTION":15.04945954,"ECCENTRICITY":0.00177122,"INCLINATION":97.4373,"RA_OF_ASC_NODE":102.2221,"ARG_OF_PERICENTER":194.2548,"MEAN_ANOMALY":165.8182,"EPHEMERIS_TYPE":0,"CLASSIFICATION_TYPE":"U","NORAD_CAT_ID":33312,"ELEMENT_SET_NO":999,"REV_AT_EPOCH":95100,"BSTAR":0.0001818221,"MEAN_MOTION_DOT":2.525e-5,"MEAN_MOTION_DDOT":0}]
